{"fetched_at":"2026-03-29T02:12:04Z","count":15717,"tles":[{"name":"STARLINK-3245","line1":"1 50170U 21125Q   26087.58116267  .00000911  00000+0  75347-4 0  9993","line2":"2 50170  53.2176 164.3153 0001454  97.6414 262.4743 15.08832578239444","category":"Starlink"}]}