{
  "norad_id": 50170,
  "name": "STARLINK-3245",
  "history": [
    {
      "epoch": "2026-03-28T13:56:52.453824Z",
      "apogee_km": 540.7719382490077,
      "perigee_km": 538.7602120347565,
      "latitude_deg": -2.4339812205098775e-05,
      "longitude_deg": 129.09716844458222,
      "height_km": 540.7954405255533,
      "semi_major_axis_km": 6917.903075141881,
      "eccentricity": 0.0001454,
      "inclination_deg": 53.2176,
      "raan_deg": 164.3153,
      "arg_perigee_deg": 97.6414,
      "mean_anomaly_deg": 262.4743,
      "mean_motion_rev_day": 15.08832578
    }
  ]
}